0 COSMOS 2251 DEB
1 36439U 93036BAN 13295.43439190  .00000882  00000-0  91841-3 0  1085
2 36439 073.9674 207.3866 0457457 317.7265 041.5094 13.38973090210120
